AMC-3                   
1 24936U 97050A   26156.46923512 -.00000232  00000+0  00000+0 0  9993
2 24936   8.1165  64.2198 0010464 111.2215 173.9176  1.00107765 52317
NSS-11                  
1 26554U 00059A   26158.23784938  .00000039  00000+0  00000+0 0  9992
2 26554   2.1000  81.5079 0003116 356.9203  78.8365  1.00272372 41192
AMC-6                   
1 26580U 00067A   26158.26119442  .00000103  00000+0  00000+0 0  9997
2 26580   0.1260  82.9398 0003698   1.8498 129.8707  1.00271060 93796
AMC-15                  
1 28446U 04041A   26158.19558495 -.00000075  00000+0  00000+0 0  9992
2 28446   0.0269 307.9272 0002355 129.8688 143.1724  1.00272069 79207
NSS-10                  
1 28526U 05003A   26158.24984300 -.00000238  00000+0  00000+0 0  9995
2 28526   6.4239  70.5740 0003043   4.4936 233.0878  1.00272124 53051
ASTRA 1KR               
1 29055U 06012A   26158.20673664  .00000133  00000+0  00000+0 0  9991
2 29055   0.4471  83.2081 0003603 349.9579 275.8703  1.00272141 45592
ASTRA 1L                
1 31306U 07016A   26158.19815660 -.00000170  00000+0  00000+0 0  9992
2 31306   1.2952  81.6620 0005449   4.1782 216.6137  1.00272241 44880
ASTRA 4A                
1 32299U 07057A   26158.20396330  .00000047  00000+0  00000+0 0  9991
2 32299   0.0230 307.2080 0002565 135.3202 251.3370  1.00274153 51545
ASTRA 1M                
1 33436U 08057A   26158.20682331  .00000135  00000+0  00000+0 0  9993
2 33436   0.2697  82.3230 0005073  20.0966 247.0563  1.00274058 45633
NSS-9                   
1 33749U 09008A   26158.32362543  .00000086  00000+0  00000+0 0  9995
2 33749   1.2354  82.7550 0002230 343.1609 129.3843  1.00271302 63424
SES-7 (PROTOSTAR 2)     
1 34941U 09027A   26158.15392259 -.00000331  00000+0  00000+0 0  9993
2 34941   0.0600  79.0615 0000477 323.3070  16.8699  1.00273050 62525
NSS-12                  
1 36032U 09058A   26158.21427668  .00000086  00000+0  00000+0 0  9996
2 36032   0.0647  63.1894 0004973 344.4805 342.0946  1.00270406 60818
SES-1                   
1 36516U 10016A   26158.19003021 -.00000100  00000+0  00000+0 0  9997
2 36516   0.0171 314.7160 0002837 123.4988 144.8020  1.00272035 58933
ASTRA 3B                
1 36581U 10021A   26158.20768998  .00000151  00000+0  00000+0 0  9993
2 36581   1.4450  83.6733 0004455 350.8685 279.3296  1.00273754 58765
SES-3                   
1 37748U 11035A   26158.26780267 -.00000087  00000+0  00000+0 0  9993
2 37748   1.3003  83.1976 0002737 348.1192 177.7643  1.00271162 54496
ASTRA 1N                
1 37775U 11041A   26158.20682331  .00000134  00000+0  00000+0 0  9999
2 37775   0.0781  33.4682 0006314  57.7426 258.0716  1.00271817 44428
SES-2                   
1 37809U 11049A   26158.22961490 -.00000182  00000+0  00000+0 0  9997
2 37809   0.0419 119.1552 0002945 314.9452 177.2038  1.00272062 53865
QUETZSAT 1              
1 37826U 11054A   26158.27083036 -.00000227  00000+0  00000+0 0  9998
2 37826   0.0442  68.8830 0002856   8.7302 198.5736  1.00272445 49773
SES-4                   
1 38087U 12007A   26158.19867660 -.00000154  00000+0  00000+0 0  9990
2 38087   0.0255  30.1953 0002485  59.2792 215.6551  1.00270697 52121
SES-5                   
1 38652U 12036A   26158.20396330  .00000048  00000+0  00000+0 0  9994
2 38652   0.0512 308.1240 0002179 128.2731 257.6257  1.00274070 44356
ASTRA 2F                
1 38778U 12051A   26158.20855666  .00000164  00000+0  00000+0 0  9991
2 38778   0.0473 256.4689 0000966 273.4321 188.9798  1.00272970 41038
SES-6                   
1 39172U 13026A   26158.19494992 -.00000247  00000+0  00000+0 0  9995
2 39172   0.0235 316.4616 0002724 136.7897 192.0422  1.00270754 47622
O3B FM5                 
1 39188U 13031A   26158.04547404 -.00000012  00000+0  00000+0 0  9999
2 39188   0.0993 347.4233 0002987  75.8032 296.8057  5.00116547236534
O3B FM4                 
1 39189U 13031B   26158.16487689 -.00000012  00000+0  00000+0 0  9991
2 39189   0.0434 345.9885 0005090  81.9060 292.1611  5.00115263236548
O3B FM2                 
1 39190U 13031C   26158.03051075 -.00000012  00000+0  00000+0 0  9995
2 39190   0.0391 339.9701 0002762  93.3931 286.6687  5.00116059236601
O3B PFM                 
1 39191U 13031D   26158.04463067 -.00000012  00000+0  00000+0 0  9995
2 39191   0.0684 353.8914 0005330  78.6547 287.5139  5.00115966236160
ASTRA 2E                
1 39285U 13056A   26158.20864332  .00000165  00000+0  00000+0 0  9992
2 39285   0.0689 320.2620 0002655 124.5998 274.3755  1.00273234 46312
SES-8                   
1 39460U 13071A   26158.11969247 -.00000255  00000+0  00000+0 0  9996
2 39460   0.0132 304.8170 0002918 137.4020 311.4101  1.00271837 44323
ASTRA 5B                
1 39617U 14011B   26158.20768998  .00000151  00000+0  00000+0 0  9999
2 39617   0.0582 316.4512 0002183 107.4489 289.9929  1.00269659 44567
O3B FM3                 
1 40079U 14038A   26157.91140992 -.00000013  00000+0  00000+0 0  9995
2 40079   0.0486 354.0630 0002109 141.7045 224.2509  5.00115716212538
O3B FM7                 
1 40080U 14038B   26158.05741289 -.00000012  00000+0  00000+0 0  9998
2 40080   0.0484 345.3272 0003896  66.2954 308.4140  5.00115658217375
O3B FM6                 
1 40081U 14038C   26157.88450571 -.00000013  00000+0  00000+0 0  9991
2 40081   0.0480 350.7826 0002629  84.4287 284.8193  5.00115721217311
O3B FM8                 
1 40082U 14038D   26158.13765671 -.00000012  00000+0  00000+0 0  9990
2 40082   0.0480 349.4861 0002751  88.5955 281.9509  5.00116059217447
O3B FM10                
1 40348U 14083A   26158.16486533 -.00000012  00000+0  00000+0 0  9995
2 40348   0.0403 329.3873 0002686 106.3263 284.3179  5.00115246209397
O3B FM11                
1 40349U 14083B   26157.97763055 -.00000012  00000+0  00000+0 0  9991
2 40349   0.0560 355.4429 0002736  65.0473 299.5386  5.00115562209400
O3B FM12                
1 40350U 14083C   26158.20454299 -.00000012  00000+0  00000+0 0  9997
2 40350   0.0551 355.4132 0002537  77.2151 287.4010  5.00115986209411
O3B FM9                 
1 40351U 14083D   26157.83159336 -.00000013  00000+0  00000+0 0  9991
2 40351   0.0571 354.8716 0002710  80.1252 285.0347  5.00115988209557
ASTRA 2G                
1 40364U 14089A   26158.20855666  .00000164  00000+0  00000+0 0  9998
2 40364   0.0495  10.9927 0005050  48.9481 298.9473  1.00270643 41863
SES-9                   
1 41380U 16013A   26158.15392259 -.00000331  00000+0  00000+0 0  9991
2 41380   0.0098 338.4066 0002402  99.5227 341.3494  1.00269675 37337
SES-10                  
1 42432U 17017A   26158.21850244 -.00000258  00000+0  00000+0 0  9993
2 42432   0.0203  30.7938 0002915  58.1045 178.4997  1.00270476 33651
SES-15                  
1 42709U 17026A   26158.27825483  .00000074  00000+0  00000+0 0  9998
2 42709   0.0211 327.3400 0000649  90.7057 168.6678  1.00270666  7337
SES-11 (ECHOSTAR 105)   
1 42967U 17063A   26158.19558495 -.00000075  00000+0  00000+0 0  9994
2 42967   0.0154 337.4632 0002785 109.7166 133.8870  1.00271138 31625
SES-14                  
1 43175U 18012B   26158.19356324 -.00000264  00000+0  00000+0 0  9998
2 43175   0.0187  21.4726 0001142  67.4353 188.8809  1.00270629  6922
O3B FM15                
1 43231U 18024A   26158.09828452 -.00000012  00000+0  00000+0 0  9990
2 43231   0.0513   2.5653 0002626  72.5277 284.9376  5.00115784150524
O3B FM16                
1 43232U 18024B   26157.95073057 -.00000012  00000+0  00000+0 0  9998
2 43232   0.0506   7.2109 0002641  67.1240 285.6957  5.00115978150430
O3B FM14                
1 43233U 18024C   26157.99153021 -.00000012  00000+0  00000+0 0  9993
2 43233   0.0491   7.9929 0002889  68.1552 283.8856  5.00115745150443
O3B FM13                
1 43234U 18024D   26150.06178340 -.00000022  00000+0  00000+0 0  9997
2 43234   0.0460 325.0158 0003022  53.8236 341.1729  5.00115660150159
SES-12                  
1 43488U 18049A   26158.11969247 -.00000255  00000+0  00000+0 0  9991
2 43488   0.0277  45.4108 0000927 264.1659  84.0466  1.00271231 29318
O3B FM20                
1 44112U 19020A   26158.01758347 -.00000012  00000+0  00000+0 0  9993
2 44112   0.0523 359.1136 0002465  68.3627 292.5514  5.00115604131062
O3B FM19                
1 44113U 19020B   26146.25108215 -.00000023  00000+0  00000+0 0  9992
2 44113   0.0661 341.7705 0003987  68.4615 309.8031  5.00116140130345
O3B FM17                
1 44114U 19020C   26158.12476830 -.00000012  00000+0  00000+0 0  9991
2 44114   0.0332   5.3228 0002603  68.9097 285.7978  5.00115555131024
O3B FM18                
1 44115U 19020D   26158.07109481 -.00000012  00000+0  00000+0 0  9991
2 44115   0.0527 358.9805 0002753  78.0191 283.0327  5.00115360131148
SES-17                  
1 49332U 21095A   26158.21850244 -.00000258  00000+0  00000+0 0  9990
2 49332   0.0249  34.1541 0001082  74.2211 158.8137  1.00271178 17754
SES-22                  
1 52933U 22071A   26158.32604705  .00000119  00000+0  00000+0 0  9992
2 52933   0.0281 284.7636 0001226 143.7142 165.6394  1.00273629  7421
SES-20                  
1 53960U 22123A   26158.25991174 -.00000087  00000+0  00000+0 0  9997
2 53960   0.0375  79.1974 0002077  14.9861 151.9540  1.00269589 13438
SES-21                  
1 53961U 22123B   26158.26121815  .00000084  00000+0  00000+0 0  9992
2 53961   0.0276  29.0085 0000886  43.9792 145.7070  1.00270099  7112
O3B MPOWER F1           
1 54755U 22174A   26158.14384024 -.00000012  00000+0  00000+0 0  9992
2 54755   0.0536 342.7844 0006325 108.2136 259.9714  5.00115060 64859
O3B MPOWER F2           
1 54756U 22174B   26157.31605053 -.00000014  00000+0  00000+0 0  9991
2 54756   0.0496 341.6988 0005908  90.2593 288.1077  5.00115112 64905
SES-18                  
1 55970U 23038A   26158.25991174 -.00000087  00000+0  00000+0 0  9996
2 55970   0.0166 315.5058 0000341  42.3759 248.2649  1.00271769 12007
SES-19                  
1 55971U 23038B   26158.24763150  .00000102  00000+0  00000+0 0  9994
2 55971   0.0233 298.9153 0001768 141.0987 129.8912  1.00271399 11990
O3B MPOWER F4           
1 56367U 23059A   26158.17988339 -.00000012  00000+0  00000+0 0  9998
2 56367   0.0638 356.3184 0007592  87.6529 276.1169  5.00115638 58101
O3B MPOWER F3           
1 56368U 23059B   26158.01319703 -.00000012  00000+0  00000+0 0  9995
2 56368   0.0647 355.8554 0006725  79.8557 284.3652  5.00116495 54227
O3B MPOWER F5           
1 58346U 23175A   26140.72351744 -.00000023  00000+0  00000+0 0  9994
2 58346   0.0469  12.7092 0004726  60.9652 286.3772  5.00115437 48064
O3B MPOWER F6           
1 58347U 23175B   26158.01473308 -.00000012  00000+0  00000+0 0  9995
2 58347   0.0522   4.2553 0004536  66.9828 288.8127  5.00116017 47844
ASTRA 1P (SES-24)       
1 60086U 24115A   26156.78093435  .00000132  00000+0  00000+0 0  9996
2 60086   0.0643  14.2112 0000729 359.6761 180.6635  1.00270482  7089
O3B MPOWER F7           
1 62362U 24244A   26157.88119878 -.00000013  00000+0  00000+0 0  9999
2 62362   0.0688 350.4092 0006033  82.8128 286.8457  5.00115231 26014
O3B MPOWER F8           
1 62363U 24244B   26157.64824303 -.00000013  00000+0  00000+0 0  9990
2 62363   0.0188 324.6954 0006049 100.6151 294.7539  5.00115222 20341
O3B MPOWER F9           
1 64866U 25153A   26158.18135294 -.00000012  00000+0  00000+0 0  9993
2 64866   0.0578  11.2131 0006244  87.2632 261.5961  5.00115842 19067
O3B MPOWER F10          
1 64867U 25153B   26158.14733584 -.00000012  00000+0  00000+0 0  9996
2 64867   0.0560   6.9537 0001895 256.3387  96.6875  5.00114924 21539
